satname,norad_id,inclination_deg,eccentricity,mean_motion_rev_per_day,perigee_km,apogee_km,l1,l2
STARLINK-1008,44714,53.1558,0.0001274,15.45581057,428.80397128278855,430.5386008340756,1 44714U 19074B   26114.91668980  .00036605  00000+0  75437-3 0  9990,2 44714  53.1558 322.7461 0001274  74.2189  30.8469 15.45581057  5869
STARLINK-1012,44718,53.1602,0.0001616,15.45558556,428.63720767765153,430.8375126708597,1 44718U 19074F   26114.91668980  .00035551  00000+0  73354-3 0  9999,2 44718  53.1602 323.0725 0001616  94.3598 350.9861 15.45558556  5867
STARLINK-1017,44723,53.0505,0.0003057,15.28027822,479.6114286081547,483.8055381366876,1 44723U 19074L   26114.84028039  .00029648  00000+0  10784-2 0  9999,2 44723  53.0505 317.8462 0003057 192.1948 167.8977 15.28027822356017
STARLINK-1019,44724,53.0346,0.0007973,16.00307896,268.2619794865923,278.86878410460304,1 44724U 19074M   26114.69569227  .00313753  52734-4  59042-3 0  9992,2 44724  53.0346 262.4764 0007973 314.6129  45.4249 16.00307896356762
STARLINK-1020,44725,53.1616,0.0002138,15.43312558,434.88386829625415,437.79773900509645,1 44725U 19074N   26114.91668980  .01714369  00000+0  34310-1 0  9996,2 44725  53.1616 348.4201 0002138  92.7227 298.4583 15.43312558  5811
STARLINK-1036,44741,53.0448,0.0004566,15.64726874,370.9413431949606,377.1074169672502,1 44741U 19074AE  26112.99358039  .00036594  00000+0  37350-3 0  9996,2 44741  53.0448 332.5417 0004566 143.8900 216.2423 15.64726874355640
STARLINK-1039,44744,53.0608,0.000154,15.25480594,488.28508945064186,490.4002731924893,1 44744U 19074AH  26114.85794514  .00027737  00000+0  10906-2 0  9994,2 44744  53.0608   2.2646 0001540  90.4033 269.7141 15.25480594355394
STARLINK-1042,44747,53.0421,0.0001405,15.52205307,409.3348696647445,411.2424172705596,1 44747U 19074AL  26114.72404513  .00020681  00000+0  34205-3 0  9990,2 44747  53.0421 233.5061 0001405 342.7940  17.3021 15.52205307357214
STARLINK-1043,44748,53.0523,0.0001797,15.56705198,395.9828263507543,398.4178825959516,1 44748U 19074AM  26114.86228036  .00032140  00000+0  44708-3 0  9992,2 44748  53.0523 331.1998 0001797 164.5334 195.5732 15.56705198355834
STARLINK-1046,44751,53.0514,0.0001815,15.49365551,417.34728861905023,419.814497214179,1 44751U 19074AQ  26114.82048862  .00052567  00000+0  94489-3 0  9995,2 44751  53.0514 350.7013 0001815 333.5372  26.5543 15.49365551355553
STARLINK-1047,44752,53.0698,0.0002971,15.33597696,463.0557738953221,467.12201872290916,1 44752U 19074AR  26114.78086265  .00007591  00000+0  24153-3 0  9998,2 44752  53.0698 290.5105 0002971  41.9975 318.1253 15.33597696356417
STARLINK-1048,44753,53.0482,0.0002824,15.61618231,381.0728851294907,384.89156526788247,1 44753U 19074AS  26114.78205012  .00087170  00000+0  99022-3 0  9990,2 44753  53.0482 305.1079 0002824 222.2044 137.8752 15.61618231356184
STARLINK-1063,44768,53.1583,0.0002135,15.4552191,428.3914703184719,431.2984786215711,1 44768U 19074BH  26114.91668980  .00064954  00000+0  13296-2 0  9991,2 44768  53.1583   3.7422 0002135  96.4366 304.8732 15.45521910  5712
STARLINK-1067,44771,53.0473,0.0005419,15.66577804,365.04871353068756,372.3609407029171,1 44771U 19074BL  26114.82734926  .00089713  00000+0  83731-3 0  9991,2 44771  53.0473 338.7688 0005419 160.1946 199.9280 15.66577804355725
STARLINK-1068,44772,53.0456,0.0003263,15.69621009,357.78277258882827,362.1800686701308,1 44772U 19074BM  26114.79995024  .00050960  00000+0  42434-3 0  9993,2 44772  53.0456 312.9224 0003263  93.0642 267.0747 15.69621009356073
STARLINK-1114,44927,53.0449,0.0004604,15.58159245,389.8671898940902,396.102038676524,1 44927U 20001P   26114.77881398  .00080429  00000+0  10434-2 0  9990,2 44927  53.0449 106.7199 0004604 347.1773  12.9121 15.58159245347265
STARLINK-1123,44930,53.1466,0.0001875,15.43043143,435.85612149721965,438.4118481165224,1 44930U 20001S   26114.91668980  .01810707  00000+0  36356-1 0  9991,2 44930  53.1466 130.0827 0001875  80.6462 249.7930 15.43043143  5800
STARLINK-1094,44941,53.1545,0.00018,15.43963098,433.2002470031748,435.6527698662112,1 44941U 20001AD  26114.91668980  .01774749  00000+0  34626-1 0  9996,2 44941  53.1545 104.1140 0001800  77.2222 235.5234 15.43963098  5668
STARLINK-1122,44949,53.1559,0.0001677,15.41732259,439.85306866909104,442.14020609106865,1 44949U 20001AM  26114.91668980  .01771247  00000+0  37235-1 0  9993,2 44949  53.1559 104.5947 0001677  77.8992 231.2407 15.41732259  5859
STARLINK-1080,44961,53.0479,0.0001197,15.54809606,401.89447078321245,403.51780463037903,1 44961U 20001AZ  26114.16794596  .00059525  00000+0  87871-3 0  9997,2 44961  53.0479  69.5740 0001197  23.0205 337.0858 15.54809606347737
STARLINK-1090,44968,53.1513,0.0001513,15.42068201,438.97464363810195,441.03781377910946,1 44968U 20001BG  26114.91668980  .01740481  00000+0  36248-1 0  9993,2 44968  53.1513  91.3177 0001513  98.7167  80.9037 15.42068201  5851
STARLINK-1132,45044,53.1542,0.0004169,15.49415525,415.60125629127833,421.2682378139707,1 45044U 20006A   26114.48125468  .00050352  00000+0  90396-3 0  9991,2 45044  53.1542  35.9617 0004169  60.7146 299.4279 15.49415525344019
STARLINK-1131,45047,53.1593,0.0002308,15.44224624,432.0851521755412,435.2294764310227,1 45047U 20006D   26114.91668980  .01610557  00000+0  31453-1 0  9990,2 45047  53.1593  65.7241 0002308  81.0982 232.4829 15.44224624  5867
STARLINK-1134,45048,53.0294,0.0003524,15.49534738,415.6911587111381,420.48113678567097,1 45048U 20006E   26114.44006528  .00052378  00000+0  93581-3 0  9995,2 45048  53.0294  19.7754 0003524 347.7561  12.3360 15.49534738344225
STARLINK-1156,45054,53.1599,0.0001566,15.31291036,470.88664185212747,473.03209203425376,1 45054U 20006L   26114.60267877  .00035556  00000+0  11668-2 0  9990,2 45054  53.1599  67.6655 0001566 128.8365 231.2777 15.31291036343570
STARLINK-1159,45057,53.0375,0.0003754,16.04066251,260.6781371940024,265.66443145387257,1 45057U 20006P   26114.85546336  .00469846  11245-3  70844-3 0  9992,2 45057  53.0375 359.1880 0003754 222.5768 137.4972 16.04066251344545
STARLINK-1166,45060,53.0486,0.0002625,15.52528303,407.5653635121598,411.12879265315314,1 45060U 20006S   26114.83687558  .00068274  00000+0  10924-2 0  9991,2 45060  53.0486  51.5678 0002625  70.7721 289.3571 15.52528303343812
STARLINK-1169,45061,53.1585,0.00041,15.33881186,461.4403224674361,467.05107628092355,1 45061U 20006T   26114.26719150  .00044929  00000+0  13547-2 0  9998,2 45061  53.1585  68.7686 0004100  95.4633 264.6837 15.33881186343539
STARLINK-1171,45062,53.0441,0.0004097,15.6889665,359.29379548272664,364.81670901421876,1 45062U 20006U   26114.77845248  .00071580  00000+0  61046-3 0  9994,2 45062  53.0441  22.7950 0004097 108.7397 251.4064 15.68896650344216
STARLINK-1133,45064,53.1592,0.0001544,15.31379614,470.6376016309996,472.75282981921464,1 45064U 20006W   26114.50964590  .00045409  00000+0  14808-2 0  9993,2 45064  53.1592  44.8928 0001544 114.4757 245.6406 15.31379614343898
STARLINK-1167,45071,53.1584,0.000381,15.33466677,462.87126216297384,468.0860973109329,1 45071U 20006AD  26114.51105454  .00030418  00000+0  93473-3 0  9998,2 45071  53.1584  44.6523 0003810 102.1149 258.0281 15.33466677343890
STARLINK-1168,45072,53.1596,0.0001341,15.31305819,470.9966883163579,472.8338723379411,1 45072U 20006AE  26113.96906002  .00026448  00000+0  87160-3 0  9999,2 45072  53.1596  47.6248 0001341 124.2545 235.8583 15.31305819343800
STARLINK-1172,45074,53.1558,0.0003554,15.34372915,460.35248048688936,465.21500695152463,1 45074U 20006AG  26114.49707860  .00038405  00000+0  11428-2 0  9990,2 45074  53.1558  44.3737 0003554 106.9907 253.1485 15.34372915343891
STARLINK-1153,45080,53.159,0.0004126,15.3353739,462.44471161388446,468.0918896679732,1 45080U 20006AN  26114.82098044  .00025233  00000+0  77613-3 0  9995,2 45080  53.1590  43.1243 0004126 123.0192 237.1207 15.33537390343944
STARLINK-1151,45081,53.0534,0.0004635,15.71380762,351.8291200447311,358.07069160643005,1 45081U 20006AP  26114.45099830  .00059386  00000+0  45824-3 0  9994,2 45081  53.0534  14.0704 0004635 126.4368 233.7077 15.71380762344307
STARLINK-1185,45087,53.1609,0.0001973,15.41137438,441.4053824479406,444.0969049094356,1 45087U 20006AV  26114.48051142  .00022426  00000+0  54130-3 0  9992,2 45087  53.1609  27.3887 0001973 141.9434 218.1711 15.41137438344134
STARLINK-1183,45088,53.1592,0.0001392,15.31348456,470.8346204877753,472.74163964398485,1 45088U 20006AW  26114.46661313  .00032181  00000+0  10558-2 0  9992,2 45088  53.1592  29.8789 0001392 139.6713 220.4392 15.31348456344092
STARLINK-1152,45096,53.0378,0.0002198,15.43742551,433.5778008182051,436.57288896501905,1 45096U 20006BE  26114.82965292  .00041821  00000+0  91527-3 0  9991,2 45096  53.0378 347.8898 0002198  62.3436 297.7792 15.43742551344701
STARLINK-1184,45098,53.0533,0.0001457,15.12406404,527.8573958085426,529.8700958258732,1 45098U 20006BG  26114.49215720  .00016010  00000+0  92634-3 0  9992,2 45098  53.0533  38.1988 0001457 284.4106  75.6724 15.12406404343969
STARLINK-1193,45100,53.0509,0.0005752,15.62962414,375.2184267412531,382.9919581594486,1 45100U 20006BJ  26114.85624627  .00078226  00000+0  84451-3 0  9991,2 45100  53.0509   5.7195 0005752 128.6957 231.4572 15.62962414344452
STARLINK-1143,45179,53.0424,0.0003899,15.74503519,343.42258868831686,348.66610530270464,1 45179U 20012B   26114.91668980  .00150784  00000+0  10014-2 0  9994,2 45179  53.0424 101.7481 0003899 349.4989 210.1825 15.74503519  5917
STARLINK-1202,45183,53.1561,0.0002204,15.31089164,471.0515769579324,474.07136484390503,1 45183U 20012F   26114.47009262  .00029872  00000+0  98906-3 0  9992,2 45183  53.1561 186.5558 0002204  22.9505 337.1595 15.31089164341967
STARLINK-1216,45185,53.1586,0.0002254,15.31399903,470.0907763049081,473.1786533939621,1 45185U 20012H   26114.45775752  .00035597  00000+0  11642-2 0  9998,2 45185  53.1586 186.5631 0002254  32.5405 327.5735 15.31399903341907
